ONEWEB-0159             
1 48062U 21025W   24174.35986636 -.00000076  00000+0 -24260-3 0  9995
2 48062  87.8932 104.4842 0001758  79.5398 280.5930 13.13471912158456
ONEWEB-0164             
1 48063U 21025X   24173.88535757  .00000311  00000+0  81556-3 0  9998
2 48063  87.8931 104.5890 0002144  78.1883 281.9487 13.13469000158372
ONEWEB-0167             
1 48064U 21025Y   24174.37176720 -.00000234  00000+0 -67500-3 0  9994
2 48064  87.8932 104.5039 0001861  75.2388 284.8947 13.13472452158426
ONEWEB-0166             
1 48065U 21025Z   24174.24084784  .00000153  00000+0  38374-3 0  9994
2 48065  87.8927 104.5131 0001854  82.4811 277.6529 13.13471883158486
ONEWEB-0151             
1 48066U 21025AA  24174.16626866  .00000169  00000+0  42847-3 0  9996
2 48066  87.8928 104.5415 0002157  76.4409 283.6960 13.13469816158429
ONEWEB-0170             
1 48067U 21025AB  24174.32654730  .00000314  00000+0  82570-3 0  9995
2 48067  87.8930 104.5119 0002676  76.4723 283.6704 13.13471915158394
ONEWEB-0168             
1 48068U 21025AC  24174.31226451 -.00000056  00000+0 -18915-3 0  9997
2 48068  87.8933 104.4847 0001966  78.2192 281.9158 13.13471950158401
ONEWEB-0173             
1 48069U 21025AD  24174.30431540 -.00000173  00000+0 -50855-3 0  9993
2 48069  87.8932 104.4961 0001952  65.1136 295.0196 13.13472499158649
